{"type": "FeatureCollection", "features": [ {"type": "Feature", "properties": {"norad_id": 66677, "name": "TRANSPORTER-15M", "group": "last-30-days", "lat": 28.8279553106017, "lon": 67.7831031159019, "alt_km": 513.9677606065543, "timestamp": "2025-12-26T09:30:52.340813+00:00", "meta": {"OBJECT_NAME": "TRANSPORTER-15M", "OBJECT_ID": "2025-276M", "EPOCH": "2025-12-26T03:03:24.399072", "MEAN_MOTION": 15.17575934, "ECCENTRICITY": 0.0003872, "INCLINATION": 97.4378, "RA_OF_ASC_NODE": 71.6421, "ARG_OF_PERICENTER": 248.807, "MEAN_ANOMALY": 111.275, "EPHEMERIS_TYPE": 0, "CLASSIFICATION_TYPE": "U", "NORAD_CAT_ID": 66677, "ELEMENT_SET_NO": 999, "REV_AT_EPOCH": 415, "BSTAR": 0.00069907, "MEAN_MOTION_DOT": 0.00013994, "MEAN_MOTION_DDOT": 0}, "tle": {"line1": "1 66677U 25276M   25360.12736573  .00013994  00000+0  69907-3 0  9993", "line2": "2 66677  97.4378  71.6421 0003872 248.8070 111.2750 15.17575934  4156"}}, "geometry": {"type": "Point", "coordinates": [67.7831031159019, 28.8279553106017]}}, {"type": "Feature", "properties": {"norad_id": 66678, "name": "TRANSPORTER-15N", "group": "last-30-days", "lat": -17.798212622211793, "lon": 74.28556048549274, "alt_km": 517.2259627722178, "timestamp": "2025-12-26T09:30:52.340823+00:00", "meta": {"OBJECT_NAME": "TRANSPORTER-15N", "OBJECT_ID": "2025-276N", "EPOCH": "2025-12-26T03:15:39.841920", "MEAN_MOTION": 15.16985461, "ECCENTRICITY": 0.0006456, "INCLINATION": 97.4382, "RA_OF_ASC_NODE": 71.6261, "ARG_OF_PERICENTER": 34.1912, "MEAN_ANOMALY": 325.9736, "EPHEMERIS_TYPE": 0, "CLASSIFICATION_TYPE": "U", "NORAD_CAT_ID": 66678, "ELEMENT_SET_NO": 999, "REV_AT_EPOCH": 415, "BSTAR": 0.0003171, "MEAN_MOTION_DOT": 6.2e-05, "MEAN_MOTION_DDOT": 0}, "tle": {"line1": "1 66678U 25276N   25360.13587780  .00006200  00000+0  31710-3 0  9992", "line2": "2 66678  97.4382  71.6261 0006456  34.1912 325.9736 15.16985461  4153"}}, "geometry": {"type": "Point", "coordinates": [74.28556048549274, -17.798212622211793]}}, {"type": "Feature", "properties": {"norad_id": 66679, "name": "TRANSPORTER-15P", "group": "last-30-days", "lat": -27.137366257476323, "lon": 75.71598205984635, "alt_km": 521.6301295045032, "timestamp": "2025-12-26T09:30:52.340833+00:00", "meta": {"OBJECT_NAME": "TRANSPORTER-15P", "OBJECT_ID": "2025-276P", "EPOCH": "2025-12-26T00:08:05.421984", "MEAN_MOTION": 15.16718698, "ECCENTRICITY": 0.0004744, "INCLINATION": 97.4359, "RA_OF_ASC_NODE": 71.4944, "ARG_OF_PERICENTER": 243.3659, "MEAN_ANOMALY": 116.7089, "EPHEMERIS_TYPE": 0, "CLASSIFICATION_TYPE": "U", "NORAD_CAT_ID": 66679, "ELEMENT_SET_NO": 999, "REV_AT_EPOCH": 413, "BSTAR": 0.00021025, "MEAN_MOTION_DOT": 4.056e-05, "MEAN_MOTION_DDOT": 0}, "tle": {"line1": "1 66679U 25276P   25360.00561831  .00004056  00000+0  21025-3 0  9993", "line2": "2 66679  97.4359  71.4944 0004744 243.3659 116.7089 15.16718698  4135"}}, "geometry": {"type": "Point", "coordinates": [75.71598205984635, -27.137366257476323]}}, {"type": "Feature", "properties": {"norad_id": 66680, "name": "TRANSPORTER-15Q", "group": "last-30-days", "lat": -17.402270598291352, "lon": 74.24512872199394, "alt_km": 521.4313062673327, "timestamp": "2025-12-26T09:30:52.340845+00:00", "meta": {"OBJECT_NAME": "TRANSPORTER-15Q", "OBJECT_ID": "2025-276Q", "EPOCH": "2025-12-25T05:05:38.818176", "MEAN_MOTION": 15.16866532, "ECCENTRICITY": 0.000484, "INCLINATION": 97.4407, "RA_OF_ASC_NODE": 70.7353, "ARG_OF_PERICENTER": 236.3987, "MEAN_ANOMALY": 123.6784, "EPHEMERIS_TYPE": 0, "CLASSIFICATION_TYPE": "U", "NORAD_CAT_ID": 66680, "ELEMENT_SET_NO": 999, "REV_AT_EPOCH": 401, "BSTAR": 0.00055928, "MEAN_MOTION_DOT": 0.00010954, "MEAN_MOTION_DDOT": 0}, "tle": {"line1": "1 66680U 25276Q   25359.21225484  .00010954  00000+0  55928-3 0  9990", "line2": "2 66680  97.4407  70.7353 0004840 236.3987 123.6784 15.16866532  4017"}}, "geometry": {"type": "Point", "coordinates": [74.24512872199394, -17.402270598291352]}}, {"type": "Feature", "properties": {"norad_id": 66681, "name": "TRANSPORTER-15R", "group": "last-30-days", "lat": 18.13770755371919, "lon": 69.4351581867017, "alt_km": 515.2127339568133, "timestamp": "2025-12-26T09:30:52.340855+00:00", "meta": {"OBJECT_NAME": "TRANSPORTER-15R", "OBJECT_ID": "2025-276R", "EPOCH": "2025-12-26T03:06:15.048576", "MEAN_MOTION": 15.17562577, "ECCENTRICITY": 0.0004877, "INCLINATION": 97.433, "RA_OF_ASC_NODE": 71.6241, "ARG_OF_PERICENTER": 261.2436, "MEAN_ANOMALY": 98.8245, "EPHEMERIS_TYPE": 0, "CLASSIFICATION_TYPE": "U", "NORAD_CAT_ID": 66681, "ELEMENT_SET_NO": 999, "REV_AT_EPOCH": 415, "BSTAR": 0.00085327, "MEAN_MOTION_DOT": 0.00017098, "MEAN_MOTION_DDOT": 0}, "tle": {"line1": "1 66681U 25276R   25360.12934084  .00017098  00000+0  85327-3 0  9998", "line2": "2 66681  97.4330  71.6241 0004877 261.2436  98.8245 15.17562577  4158"}}, "geometry": {"type": "Point", "coordinates": [69.4351581867017, 18.13770755371919]}}, {"type": "Feature", "properties": {"norad_id": 66682, "name": "TRANSPORTER-15S", "group": "last-30-days", "lat": -14.912060942099913, "lon": 73.9094665963508, "alt_km": 540.8907195067486, "timestamp": "2025-12-26T09:30:52.340865+00:00", "meta": {"OBJECT_NAME": "TRANSPORTER-15S", "OBJECT_ID": "2025-276S", "EPOCH": "2025-12-26T03:14:15.689184", "MEAN_MOTION": 15.14283917, "ECCENTRICITY": 0.0019415, "INCLINATION": 97.4452, "RA_OF_ASC_NODE": 71.6579, "ARG_OF_PERICENTER": 164.6738, "MEAN_ANOMALY": 195.5086, "EPHEMERIS_TYPE": 0, "CLASSIFICATION_TYPE": "U", "NORAD_CAT_ID": 66682, "ELEMENT_SET_NO": 999, "REV_AT_EPOCH": 415, "BSTAR": 0.015165, "MEAN_MOTION_DOT": 0.00289588, "MEAN_MOTION_DDOT": 0}, "tle": {"line1": "1 66682U 25276S   25360.13490381  .00289588  00000+0  15165-1 0  9993", "line2": "2 66682  97.4452  71.6579 0019415 164.6738 195.5086 15.14283917  4156"}}, "geometry": {"type": "Point", "coordinates": [73.9094665963508, -14.912060942099913]}}, {"type": "Feature", "properties": {"norad_id": 66683, "name": "TRANSPORTER-15T", "group": "last-30-days", "lat": -4.432986359376863, "lon": 72.49684385164291, "alt_km": 520.4191978354038, "timestamp": "2025-12-26T09:30:52.340877+00:00", "meta": {"OBJECT_NAME": "TRANSPORTER-15T", "OBJECT_ID": "2025-276T", "EPOCH": "2025-12-26T03:12:07.884576", "MEAN_MOTION": 15.17068853, "ECCENTRICITY": 0.0004839, "INCLINATION": 97.4443, "RA_OF_ASC_NODE": 71.6577, "ARG_OF_PERICENTER": 227.9205, "MEAN_ANOMALY": 132.1617, "EPHEMERIS_TYPE": 0, "CLASSIFICATION_TYPE": "U", "NORAD_CAT_ID": 66683, "ELEMENT_SET_NO": 999, "REV_AT_EPOCH": 415, "BSTAR": 0.00040136, "MEAN_MOTION_DOT": 7.884e-05, "MEAN_MOTION_DDOT": 0}, "tle": {"line1": "1 66683U 25276T   25360.13342459  .00007884  00000+0  40136-3 0  9991", "line2": "2 66683  97.4443  71.6577 0004839 227.9205 132.1617 15.17068853  4151"}}, "geometry": {"type": "Point", "coordinates": [72.49684385164291, -4.432986359376863]}}, {"type": "Feature", "properties": {"norad_id": 66684, "name": "TRANSPORTER-15U", "group": "last-30-days", "lat": 16.532284017649555, "lon": 69.7083405854591, "alt_km": 517.2194064808527, "timestamp": "2025-12-26T09:30:52.340923+00:00", "meta": {"OBJECT_NAME": "TRANSPORTER-15U", "OBJECT_ID": "2025-276U", "EPOCH": "2025-12-26T03:06:38.024064", "MEAN_MOTION": 15.17397562, "ECCENTRICITY": 0.0004634, "INCLINATION": 97.4469, "RA_OF_ASC_NODE": 71.6711, "ARG_OF_PERICENTER": 225.381, "MEAN_ANOMALY": 134.7046, "EPHEMERIS_TYPE": 0, "CLASSIFICATION_TYPE": "U", "NORAD_CAT_ID": 66684, "ELEMENT_SET_NO": 999, "REV_AT_EPOCH": 415, "BSTAR": 0.00055469, "MEAN_MOTION_DOT": 0.0001103, "MEAN_MOTION_DDOT": 0}, "tle": {"line1": "1 66684U 25276U   25360.12960676  .00011030  00000+0  55469-3 0  9991", "line2": "2 66684  97.4469  71.6711 0004634 225.3810 134.7046 15.17397562  4153"}}, "geometry": {"type": "Point", "coordinates": [69.7083405854591, 16.532284017649555]}}, {"type": "Feature", "properties": {"norad_id": 66685, "name": "TRANSPORTER-15V", "group": "last-30-days", "lat": 25.168187097036487, "lon": 68.3968607980452, "alt_km": 515.1775510466359, "timestamp": "2025-12-26T09:30:52.340934+00:00", "meta": {"OBJECT_NAME": "TRANSPORTER-15V", "OBJECT_ID": "2025-276V", "EPOCH": "2025-12-26T03:04:19.748640", "MEAN_MOTION": 15.17397324, "ECCENTRICITY": 0.0003214, "INCLINATION": 97.4413, "RA_OF_ASC_NODE": 71.6542, "ARG_OF_PERICENTER": 231.2605, "MEAN_ANOMALY": 128.8342, "EPHEMERIS_TYPE": 0, "CLASSIFICATION_TYPE": "U", "NORAD_CAT_ID": 66685, "ELEMENT_SET_NO": 999, "REV_AT_EPOCH": 415, "BSTAR": -0.0041619, "MEAN_MOTION_DOT": -0.00082255, "MEAN_MOTION_DDOT": 0}, "tle": {"line1": "1 66685U 25276V   25360.12800635 -.00082255  00000+0 -41619-2 0  9990", "line2": "2 66685  97.4413  71.6542 0003214 231.2605 128.8342 15.17397324  4155"}}, "geometry": {"type": "Point", "coordinates": [68.3968607980452, 25.168187097036487]}}, {"type": "Feature", "properties": {"norad_id": 66686, "name": "TRANSPORTER-15W", "group": "last-30-days", "lat": 16.224587756033248, "lon": 69.73101780008466, "alt_km": 521.2981561217648, "timestamp": "2025-12-26T09:30:52.340947+00:00", "meta": {"OBJECT_NAME": "TRANSPORTER-15W", "OBJECT_ID": "2025-276W", "EPOCH": "2025-12-24T16:18:47.855520", "MEAN_MOTION": 15.18035485, "ECCENTRICITY": 0.00181838, "INCLINATION": 97.4405, "RA_OF_ASC_NODE": 70.2223, "ARG_OF_PERICENTER": 243.6801, "MEAN_ANOMALY": 116.2566, "EPHEMERIS_TYPE": 0, "CLASSIFICATION_TYPE": "U", "NORAD_CAT_ID": 66686, "ELEMENT_SET_NO": 999, "REV_AT_EPOCH": 393, "BSTAR": 0.0029615296, "MEAN_MOTION_DOT": 0.00060911, "MEAN_MOTION_DDOT": 0}, "tle": {"line1": "1 66686U 25276W   25358.67972055  .00060911  00000+0  29615-2 0  9999", "line2": "2 66686  97.4405  70.2223 0018183 243.6801 116.2566 15.18035485  3936"}}, "geometry": {"type": "Point", "coordinates": [69.73101780008466, 16.224587756033248]}}]}